ONEWEB-0202             
1 48224U 21031Q   24070.51005010  .00000272  00000+0  70004-3 0  9996
2 48224  87.8897  94.6419 0001060  93.6227 266.5024 13.14501973139493
ONEWEB-0204             
1 48225U 21031R   24071.07695334 -.00000007  00000+0 -52602-4 0  9996
2 48225  87.8898  94.5407 0002356  95.9953 264.1446 13.14500477139479
ONEWEB-0205             
1 48226U 21031S   24071.12850350  .00000265  00000+0  68020-3 0  9998
2 48226  87.8896  94.5014 0001850 100.1838 259.9501 13.14501262139490
ONEWEB-0206             
1 48227U 21031T   24071.10153837 -.00000061  00000+0 -19942-3 0  9998
2 48227  87.8894  94.4984 0001985 101.0485 259.0868 13.14501106139440
ONEWEB-0182             
1 48228U 21031U   24070.79232137 -.00000139  00000+0 -40899-3 0  9995
2 48228  87.8897  94.5831 0002132  94.6224 265.5150 13.14502103139601
ONEWEB-0186             
1 48229U 21031V   24071.10788060  .00000022  00000+0  23754-4 0  9994
2 48229  87.8895  94.4847 0001829  93.8525 266.2814 13.14500919139601
ONEWEB-0181             
1 48230U 21031W   24071.08568823 -.00000174  00000+0 -50415-3 0  9999
2 48230  87.8897  94.5583 0001727  92.9185 267.2143 13.14502767139454
ONEWEB-0188             
1 48231U 21031X   24070.51480058  .00000254  00000+0  65107-3 0  9991
2 48231  87.8895  94.6692 0001928  95.4802 264.6548 13.14500961139276
